[
    {
        "Altitude(m)": 605459.0600071896,
        "Argument of Periapsis(deg)": 0.0,
        "Eccentricity": 0.0,
        "Inclination(deg)": 60.0,
        "Latitude(deg)": 27.988315335790897,
        "Longitude(deg)": 57.79854743450381,
        "Mean Anomaly(deg)": 32.72730000000001,
        "RAAN(deg)": 140.0,
        "Satellite Name": "Test1 618",
        "Satellite Number": 618,
        "Semi-Major Axis(m)": 6980739.136638005,
        "Time(s)": 0
    },
    {
        "Altitude(m)": 605535.8515366489,
        "Argument of Periapsis(deg)": 0.00010418945913296404,
        "Eccentricity": 0.0,
        "Inclination(deg)": 60.0,
        "Latitude(deg)": 28.50144527549556,
        "Longitude(deg)": 58.15549204142533,
        "Mean Anomaly(deg)": 33.34740614546182,
        "RAAN(deg)": 139.99957995086024,
        "Satellite Name": "Test1 618",
        "Satellite Number": 618,
        "Semi-Major Axis(m)": 6980739.136638005,
        "Time(s)": 10
    }
]